FENGYUN 1C DEB          
1 35217U 99025DPZ 17345.03748888  .00000592  00000-0  76749-3 0  9991
2 35217 101.8811  14.5896 0325408 142.9442 219.4638 13.47587409500265
